104P/Kowal,e,5.7186,207.4272,227.0832,3.208149,0.1715230,0.66565811,316.5905,05/03.0/2021,2000,g 16.0,4.0
# From MPC109147
105P/Singer Brewster,e,9.1707,192.4130,46.4854,3.467271,0.1526590,0.40951754,152.2484,05/03.0/2021,2000,g 11.5,6.0
# From MPC 92276
106P/Schuster,e,19.5358,48.8888,353.6584,3.763056,0.1350184,0.59377380,345.4508,05/03.0/2021,2000,g 14.0,4.8
# From MPEC 2015-M77
107P/Wilson-Harrington,e,2.7986,266.7939,95.4037,2.625297,0.2317055,0.63153667,249.0791,05/03.0/2021,2000,g  9.0,4.0
# From MPC 89313
108P/Ciffreo,e,11.4368,50.2960,354.4021,3.739250,0.1363098,0.55597838,342.2708,05/03.0/2021,2000,g  8.0,12.0
# From  105, 420
109P/Swift-Tuttle,e,113.9899,139.0371,152.9081,26.13802,0.0073756,0.96289313,76.5479,05/03.0/2021,2000,g  4.0,6.0
# From MPEC 2020-W26
110P/Hartley,e,11.7073,287.5343,167.4545,3.601201,0.1442225,0.31808591,335.7217,05/03.0/2021,2000,g  1.0,12.0
# From MPC 75718
111P/Helin-Roman-Crockett,e,4.2270,89.7667,1.0065,4.146975,0.1167097,0.10594265,354.8951,05/03.0/2021,2000,g  5.0,8.0
# From MPEC 2021-F20
112P/Urata-Niijima,e,24.1950,31.8368,21.4860,3.525741,0.1488773,0.58987362,66.9976,05/03.0/2021,2000,g 15.3,4.0
# From MPEC 2015-E14
113P/Spitaler,e,5.2965,306.7123,115.3373,3.700741,0.1384430,0.42127112,305.4813,05/03.0/2021,2000,g 13.5,4.0
# From MPEC 2021-J28
114P/Wiseman-Skiff,e,18.2730,271.0518,172.7777,3.545500,0.1476345,0.55474093,70.1206,05/03.0/2021,2000,g 11.5,6.0
# From MPEC 2020-SI8
115P/Maury,e,11.6776,176.0100,120.9791,4.272607,0.1116001,0.51862898,30.9550,05/03.0/2021,2000,g 10.5,6.0
# From MPC106348
116P/Wild,e,3.6034,20.9863,173.3438,3.489708,0.1511891,0.37064470,293.4717,05/03.0/2021,2000,g  2.5,10.0
# From MPEC 2021-F20
117P/Helin-Roman-Alu,e,8.7025,58.8436,222.8371,4.084937,0.1193785,0.25571576,308.6314,05/03.0/2021,2000,g 10.8,4.0
# From MPC 95735
118P/Shoemaker-Levy,e,10.0856,142.1128,314.3113,3.364460,0.1597096,0.45557354,269.2519,05/03.0/2021,2000,g 12.0,4.0
# From MPC 84628
119P/Parker-Hartley,e,7.4070,104.7061,321.6498,3.819183,0.1320530,0.39044410,298.6388,05/03.0/2021,2000,g  3.5,8.0
# From MPEC 2020-SI8
120P/Mueller,e,8.4900,358.6744,36.5576,3.961421,0.1250050,0.37450072,359.4823,05/03.0/2021,2000,g 12.0,4.0
# From MPEC 2020-SI8
121P/Shoemaker-Holt,e,20.1630,94.1289,11.3602,4.584960,0.1003924,0.18557738,281.1683,05/03.0/2021,2000,g  6.5,8.0
# From MPC 75718
122P/de Vico,e,84.8935,79.5514,13.0082,17.62730,0.0133176,0.96225679,124.7236,05/03.0/2021,2000,g  7.5,5.2
# From MPEC 2021-F20
123P/West-Hartley,e,15.2957,46.1995,103.8041,3.873405,0.1292899,0.44727723,105.7431,05/03.0/2021,2000,g 12.2,4.0
# From MPEC 2021-F20
124P/Mrkos,e,31.5190,0.3374,183.9561,3.320236,0.1629111,0.50350345,60.4410,05/03.0/2021,2000,g 15.2,4.0
# From MPEC 2015-M77
125P/Spacewatch,e,9.9866,153.1502,87.2392,3.125831,0.1783429,0.51271736,174.6893,05/03.0/2021,2000,g  9.0,4.0
# From MPC 66205
126P/IRAS,e,45.8684,357.8619,356.5223,5.640172,0.0735810,0.69626096,301.6247,05/03.0/2021,2000,g  9.0,4.0
# From MPC 84321
127P/Holt-Olmstead,e,14.2967,13.6365,6.4768,3.451148,0.1537300,0.35988886,288.5034,05/03.0/2021,2000,g 11.0,6.0
# From MPC 89014
128P/Shoemaker-Holt,e,4.3674,214.2974,210.3097,4.492320,0.1035137,0.32070891,163.0058,05/03.0/2021,2000,g  8.5,4.0
# From MPEC 2019-TG9
129P/Shoemaker-Levy,e,3.4424,184.8824,307.8467,4.283275,0.1111834,0.08401993,295.5902,05/03.0/2021,2000,g 11.0,4.0
# From MPC 78188
130P/McNaught-Hughes,e,6.0628,70.2280,246.0052,3.383824,0.1583407,0.46136519,189.4330,05/03.0/2021,2000,g 10.0,6.0
# From MPC102101
131P/Mueller,e,7.3552,214.1587,179.0277,3.680752,0.1395723,0.34389755,115.8018,05/03.0/2021,2000,g 11.0,4.0
# From MPEC 2020-HN5
132P/Helin-Roman-Alu,e,5.3811,174.0061,216.3450,3.888577,0.1285340,0.56499258,335.0475,05/03.0/2021,2000,g 11.0,6.0
# From MPC 94676
133P/Elst-Pizarro,e,1.3892,160.1091,131.8241,3.164657,0.1750709,0.15695837,167.0534,05/03.0/2021,2000,g 15.4,2.0
# From MPC 89012
134P/Kowal-Vavrova,e,4.3401,202.0736,18.8872,6.260109,0.0629262,0.58611125,159.8900,05/03.0/2021,2000,g 11.5,4.0
# From MPEC 2021-F20
135P/Shoemaker-Levy,e,6.0618,213.0300,22.2923,3.803263,0.1328831,0.29530910,314.9233,05/03.0/2021,2000,g  7.0,8.0
# From MPEC 2020-W26
136P/Mueller,e,9.4244,137.4484,224.8999,4.193590,0.1147691,0.29271727,206.1679,05/03.0/2021,2000,g 11.0,4.0
# From MPEC 2021-J28
137P/Shoemaker-Levy,e,4.8538,233.0344,141.0315,4.520597,0.1025440,0.57348502,89.3459,05/03.0/2021,2000,g 11.0,4.0
# From MPEC 2016-U66
138P/Shoemaker-Levy,e,10.0909,309.3307,95.5469,3.622272,0.1429659,0.53049091,104.5279,05/03.0/2021,2000,g 15.0,6.0
# From MPEC 2020-HN5
139P/Vaisala-Oterma,e,2.3339,242.1747,165.7293,4.522794,0.1024693,0.24673994,127.1070,05/03.0/2021,2000,g  9.5,4.0
# From MPEC 2015-E14
140P/Bowell-Skiff,e,3.8333,343.2806,172.8777,6.430213,0.0604458,0.69147182,126.7838,05/03.0/2021,2000,g 11.5,6.0
# From MPEC 2021-AJ0
141P/Machholz,e,13.9449,241.8465,153.5484,3.057233,0.1843789,0.73573431,25.3921,05/03.0/2021,2000,g 14.7,4.0
# From MPC 71683
142P/Ge-Wang,e,12.2500,175.9328,173.9538,5.003554,0.0880615,0.49774484,359.1532,05/03.0/2021,2000,g  9.0,4.0
# From MPEC 2021-BE3
143P/Kowal-Mrkos,e,4.6977,245.2318,320.4073,4.282767,0.1112032,0.41073170,121.6085,05/03.0/2021,2000,g 13.5,2.0
# From MPC104795
144P/Kushida,e,3.9433,243.3382,216.2370,3.818327,0.1320974,0.63642077,228.2205,05/03.0/2021,2000,g  8.5,8.0
# From MPC108598
145P/Shoemaker-Levy,e,11.2719,26.7878,10.2441,4.138735,0.1170584,0.54137683,156.8279,05/03.0/2021,2000,g 13.5,4.0
# From MPC100284
146P/Shoemaker-LINEAR,e,23.0942,53.4010,316.9396,4.032386,0.1217197,0.64696597,215.0765,05/03.0/2021,2000,g 15.0,4.0
# From MPC 75720
147P/Kushida-Muramatsu,e,2.3386,93.0805,350.0502,3.989441,0.1236904,0.23104257,242.5464,05/03.0/2021,2000,g 14.0,4.0
# From MPEC 2014-R70
148P/Anderson-LINEAR,e,3.6590,89.2788,7.7855,3.625871,0.1427531,0.55012264,301.9865,05/03.0/2021,2000,g  9.0,4.0
# From MPC 75720
149P/Mueller,e,30.5830,144.7915,44.8970,4.348223,0.1087017,0.39539124,86.8926,05/03.0/2021,2000,g  8.0,8.0
# From MPC 75720
150P/LONEOS,e,18.5063,272.3865,245.5554,3.879677,0.1289766,0.54696526,225.0837,05/03.0/2021,2000,g 13.5,4.0
# From MPEC 2015-Q71
151P/Helin,e,4.7284,143.1561,216.0479,5.763721,0.0712278,0.57343251,144.7017,05/03.0/2021,2000,g 10.0,6.0
# From MPEC 2021-F20
152P/Helin-Lawrence,e,9.8798,91.8620,163.8983,4.478422,0.1039960,0.30887992,333.4319,05/03.0/2021,2000,g 12.6,4.0
# From MPC 46101
153P/Ikeya-Zhang,e,27.8026,93.1378,35.1131,50.67945,0.0027318,0.98962549,0.0000,03/06.6505/2002,2000,g  9.0,4.0
# From MPC 87068
154P/Brewington,e,17.6325,343.0344,47.8381,4.802952,0.0936358,0.67558125,253.4282,05/03.0/2021,2000,g  2.5,12.0
# From MPEC 2021-F20
155P/Shoemaker,e,6.3962,97.1936,14.6282,6.579267,0.0584034,0.72622717,31.2510,05/03.0/2021,2000,g 13.8,4.0
# From MPEC 2021-J28
156P/Russell-LINEAR,e,17.2622,35.3659,0.4359,3.460782,0.1530886,0.61481834,25.4307,05/03.0/2021,2000,g 15.5,2.0
# From MPC104795
157P/Tritton,e,12.4877,287.7573,154.8733,3.550661,0.1473127,0.55868141,287.2331,05/03.0/2021,2000,g 10.0,4.0
# From MPEC 2016-K18
158P/Kowal-LINEAR,e,8.0148,135.5267,172.4098,4.965828,0.0890669,0.03356603,359.0602,05/03.0/2021,2000,g  9.0,4.0
# From MPEC 2021-F20
159P/LONEOS,e,23.4649,54.9845,4.5791,5.854550,0.0695767,0.38169822,74.9380,05/03.0/2021,2000,g 10.0,4.0
# From MPEC 2021-J28
160P/LINEAR,e,15.6167,333.3600,12.7015,3.774128,0.1344247,0.52629777,69.5782,05/03.0/2021,2000,g 15.5,2.0
# From MPC 75721
161P/Hartley-IRAS,e,95.7788,1.5338,46.9450,7.725160,0.0459032,0.83474105,266.5448,05/03.0/2021,2000,g  8.5,6.0
# From MPEC 2021-J28
162P/Siding Spring,e,27.5544,30.9090,357.1413,3.090960,0.1813694,0.58292560,26.5112,05/03.0/2021,2000,g 12.0,4.0
# From MPEC 2020-HN5
163P/NEAT,e,12.7083,102.0871,349.6177,3.767887,0.1347588,0.45185057,85.8357,05/03.0/2021,2000,g 14.5,4.0
# From MPEC 2021-F20
164P/Christensen,e,16.2555,88.2924,325.8363,3.656893,0.1409404,0.54000016,150.4714,05/03.0/2021,2000,g 11.0,4.0
# From MPC 75721
165P/LINEAR,e,15.8965,0.8263,126.0520,17.88309,0.0130329,0.61488365,99.8083,05/03.0/2021,2000,g 11.5,2.0
# From MPC 75722
166P/NEAT,e,15.3680,64.4529,321.4505,13.82113,0.0191818,0.38326114,132.9059,05/03.0/2021,2000,g  5.5,4.0
# From MPC 75722
167P/CINEOS,e,19.1201,295.6602,344.4654,16.21097,0.0151005,0.27225327,110.1842,05/03.0/2021,2000,g  9.5,2.0
# From MPC102101
168P/Hergenrother,e,21.6194,355.4536,14.9973,3.582260,0.1453679,0.62088966,92.5553,05/03.0/2021,2000,g 15.5,4.0
# From MPEC 2021-J28
169P/NEAT,e,11.2983,176.1028,218.0512,2.601302,0.2349188,0.76816201,258.3405,05/03.0/2021,2000,g 16.0,2.0
# From MPC 89012
170P/Christensen,e,10.1250,142.9221,225.6151,4.198556,0.1145656,0.30374546,277.7158,05/03.0/2021,2000,g 12.0,4.0
# From MPC102102
171P/Spahr,e,21.9343,101.6952,347.0865,3.555528,0.1470104,0.50158573,123.5831,05/03.0/2021,2000,g 13.5,4.0
# From MPEC 2021-BE3
172P/Yeung,e,11.2290,30.8929,209.4142,4.212688,0.1139896,0.20554750,172.3544,05/03.0/2021,2000,g 13.0,4.0
# From MPEC 2021-J28
173P/Mueller,e,16.4952,100.4029,29.2342,5.704324,0.0723432,0.26076141,343.4941,05/03.0/2021,2000,g  7.5,4.0
# From MPC 92985
174P/Echeclus,e,4.3432,173.2249,163.0698,10.71700,0.0280928,0.45738728,61.8074,05/03.0/2021,2000,g  9.4,2.0
# From MPC114608
175P/Hergenrother,e,6.0769,123.5153,56.7384,3.445372,0.1541168,0.43409133,89.0889,05/03.0/2021,2000,g 14.0,4.0
# From MPC 89015
176P/LINEAR,e,0.2348,345.8917,35.0320,3.193820,0.1726786,0.19305589,261.6637,05/03.0/2021,2000,g 15.1,2.0
# From MPEC 2020-L06
177P/Barnard,e,31.2864,272.2607,60.2336,24.41676,0.0081691,0.95529027,43.7588,05/03.0/2021,2000,g 15.0,4.0
# From MPEC 2021-F20
178P/Hug-Bell,e,11.0889,102.8737,297.7925,3.631882,0.1423988,0.48202477,41.3465,05/03.0/2021,2000,g 14.6,4.0
# From MPC 75723
179P/Jedicke,e,19.8983,115.5224,296.7591,5.936136,0.0681472,0.30612612,333.3408,05/03.0/2021,2000,g  2.5,8.0
# From MPC100284
180P/NEAT,e,16.8664,84.5665,94.8146,3.862843,0.1298206,0.35306272,256.0501,05/03.0/2021,2000,g 11.0,4.0
# From MPC 89012
